GLOBALSTAR M023 [+]     
1 25621U 99004A   23294.71506679 -.00000075  00000+0  16096-3 0  9996
2 25621  52.0094  93.9634 0009160 224.7987 148.4895 12.62443395139389
GLOBALSTAR M040 [-]     
1 25622U 99004B   23294.88251396 -.00000085  00000+0  10238-3 0  9991
2 25622  51.9900  96.7270 0001379 116.9706  29.8583 12.61957772138952
GLOBALSTAR M036 [-]     
1 25623U 99004C   23295.54711797 -.00000049  00000+0  49385-3 0  9997
2 25623  51.9997  31.3131 0010431 340.3252  32.8819 11.86554473107306
GLOBALSTAR M038 [-]     
1 25624U 99004D   23294.94613089 -.00000064  00000+0  25972-3 0  9999
2 25624  52.0003  11.6504 0001569 218.0299 313.3570 12.32486258127867
GLOBALSTAR M022 [-]     
1 25649U 99012A   23294.95540816 -.00000059  00000+0  33045-3 0  9997
2 25649  52.0012 133.4374 0003544  63.7138  84.5134 12.02471417103768
GLOBALSTAR M041 [-]     
1 25650U 99012B   23295.47772602 -.00000110  00000+0 -32081-3 0  9995
2 25650  52.0049 355.0644 0002060 198.5282 161.5479 11.96644771106253
GLOBALSTAR M046 [-]     
1 25651U 99012C   23294.96488067 -.00000048  00000+0  44533-3 0  9992
2 25651  52.0027 105.5966 0003065 116.1742  55.6532 12.09377197110559
GLOBALSTAR M037 [+]     
1 25652U 99012D   23294.92737900 -.00000063  00000+0  22795-3 0  9995
2 25652  52.0000 224.1705 0001471 312.1073 161.6456 12.62386565134955
